{
  "links" : {
    "next" : "https://api.nasa.gov/neo/rest/v1/feed?start_date=2008-09-16&end_date=2008-09-16&detailed=true&api_key=t0TVs3DtDT2H8Oy2Zy8m2eVrNsAVKAexjcZXUckd",
    "prev" : "https://api.nasa.gov/neo/rest/v1/feed?start_date=2008-09-14&end_date=2008-09-14&detailed=true&api_key=t0TVs3DtDT2H8Oy2Zy8m2eVrNsAVKAexjcZXUckd",
    "self" : "https://api.nasa.gov/neo/rest/v1/feed?start_date=2008-09-15&end_date=2008-09-15&detailed=true&api_key=t0TVs3DtDT2H8Oy2Zy8m2eVrNsAVKAexjcZXUckd"
  },
  "element_count" : 8,
  "near_earth_objects" : {
    "2008-09-15" : [ {
      "links" : {
        "self" : "https://api.nasa.gov/neo/rest/v1/neo/3430405?api_key=t0TVs3DtDT2H8Oy2Zy8m2eVrNsAVKAexjcZXUckd"
      },
      "neo_reference_id" : "3430405",
      "name" : "(2008 TQ10)",
      "nasa_jpl_url" : "http://ssd.jpl.nasa.gov/sbdb.cgi?sstr=3430405",
      "absolute_magnitude_h" : 20.5,
      "estimated_diameter" : {
        "kilometers" : {
          "estimated_diameter_min" : 0.2111324448,
          "estimated_diameter_max" : 0.4721064988
        },
        "meters" : {
          "estimated_diameter_min" : 211.1324447897,
          "estimated_diameter_max" : 472.1064988055
        },
        "miles" : {
          "estimated_diameter_min" : 0.1311915784,
          "estimated_diameter_max" : 0.2933532873
        },
        "feet" : {
          "estimated_diameter_min" : 692.6917701639,
          "estimated_diameter_max" : 1548.9058855411
        }
      },
      "is_potentially_hazardous_asteroid" : false,
      "close_approach_data" : [ {
        "close_approach_date" : "2008-09-15",
        "epoch_date_close_approach" : 1221462000000,
        "relative_velocity" : {
          "kilometers_per_second" : "12.2863790135",
          "kilometers_per_hour" : "44230.9644487048",
          "miles_per_hour" : "27483.4012153632"
        },
        "miss_distance" : {
          "astronomical" : "0.4939202599",
          "lunar" : "192.134979248",
          "kilometers" : "73889424",
          "miles" : "45912756"
        },
        "orbiting_body" : "Earth"
      } ],
      "orbital_data" : {
        "orbit_id" : "10",
        "orbit_determination_date" : "2017-04-06 09:02:37",
        "orbit_uncertainty" : "7",
        "minimum_orbit_intersection" : ".340542",
        "jupiter_tisserand_invariant" : "3.394",
        "epoch_osculation" : "2458000.5",
        "eccentricity" : ".4623340086611383",
        "semi_major_axis" : "2.22286174882967",
        "inclination" : "24.71163955095521",
        "ascending_node_longitude" : "10.00141140027769",
        "orbital_period" : "1210.506443926403",
        "perihelion_distance" : "1.19515716579374",
        "perihelion_argument" : "296.8448795186803",
        "aphelion_distance" : "3.2505663318656",
        "perihelion_time" : "2458283.684413677142",
        "mean_anomaly" : "275.7820353329988",
        "mean_motion" : ".2973961863699814",
        "equinox" : "J2000"
      }
    }, {
      "links" : {
        "self" : "https://api.nasa.gov/neo/rest/v1/neo/2066063?api_key=t0TVs3DtDT2H8Oy2Zy8m2eVrNsAVKAexjcZXUckd"
      },
      "neo_reference_id" : "2066063",
      "name" : "66063 (1998 RO1)",
      "nasa_jpl_url" : "http://ssd.jpl.nasa.gov/sbdb.cgi?sstr=2066063",
      "absolute_magnitude_h" : 18.1,
      "estimated_diameter" : {
        "kilometers" : {
          "estimated_diameter_min" : 0.6376097899,
          "estimated_diameter_max" : 1.4257388333
        },
        "meters" : {
          "estimated_diameter_min" : 637.6097898754,
          "estimated_diameter_max" : 1425.7388332807
        },
        "miles" : {
          "estimated_diameter_min" : 0.3961922327,
          "estimated_diameter_max" : 0.8859127646
        },
        "feet" : {
          "estimated_diameter_min" : 2091.8957030147,
          "estimated_diameter_max" : 4677.6209937807
        }
      },
      "is_potentially_hazardous_asteroid" : false,
      "close_approach_data" : [ {
        "close_approach_date" : "2008-09-15",
        "epoch_date_close_approach" : 1221462000000,
        "relative_velocity" : {
          "kilometers_per_second" : "33.0308864444",
          "kilometers_per_hour" : "118911.1911999235",
          "miles_per_hour" : "73886.7898875303"
        },
        "miss_distance" : {
          "astronomical" : "0.3063942434",
          "lunar" : "119.1873626709",
          "kilometers" : "45835928",
          "miles" : "28481126"
        },
        "orbiting_body" : "Earth"
      } ],
      "orbital_data" : {
        "orbit_id" : "120",
        "orbit_determination_date" : "2017-04-06 09:28:54",
        "orbit_uncertainty" : "0",
        "minimum_orbit_intersection" : ".0920815",
        "jupiter_tisserand_invariant" : "5.810",
        "epoch_osculation" : "2458000.5",
        "eccentricity" : ".7200434971207683",
        "semi_major_axis" : ".9909675638965778",
        "inclination" : "22.67803717390146",
        "ascending_node_longitude" : "351.8751141992348",
        "orbital_period" : "360.3193506060588",
        "perihelion_distance" : ".2774278136552375",
        "perihelion_argument" : "151.1313673774323",
        "aphelion_distance" : "1.704507314137918",
        "perihelion_time" : "2458011.535810189743",
        "mean_anomaly" : "348.9739708355243",
        "mean_motion" : ".9991137012055511",
        "equinox" : "J2000"
      }
    }, {
      "links" : {
        "self" : "https://api.nasa.gov/neo/rest/v1/neo/2420738?api_key=t0TVs3DtDT2H8Oy2Zy8m2eVrNsAVKAexjcZXUckd"
      },
      "neo_reference_id" : "2420738",
      "name" : "420738 (2012 TS)",
      "nasa_jpl_url" : "http://ssd.jpl.nasa.gov/sbdb.cgi?sstr=2420738",
      "absolute_magnitude_h" : 20.8,
      "estimated_diameter" : {
        "kilometers" : {
          "estimated_diameter_min" : 0.1838886721,
          "estimated_diameter_max" : 0.411187571
        },
        "meters" : {
          "estimated_diameter_min" : 183.8886720703,
          "estimated_diameter_max" : 411.1875710413
        },
        "miles" : {
          "estimated_diameter_min" : 0.1142630881,
          "estimated_diameter_max" : 0.2555000322
        },
        "feet" : {
          "estimated_diameter_min" : 603.309310875,
          "estimated_diameter_max" : 1349.040630575
        }
      },
      "is_potentially_hazardous_asteroid" : false,
      "close_approach_data" : [ {
        "close_approach_date" : "2008-09-15",
        "epoch_date_close_approach" : 1221462000000,
        "relative_velocity" : {
          "kilometers_per_second" : "16.4687142653",
          "kilometers_per_hour" : "59287.371354995",
          "miles_per_hour" : "36838.8669399968"
        },
        "miss_distance" : {
          "astronomical" : "0.4258882473",
          "lunar" : "165.6705322266",
          "kilometers" : "63711976",
          "miles" : "39588784"
        },
        "orbiting_body" : "Earth"
      } ],
      "orbital_data" : {
        "orbit_id" : "103",
        "orbit_determination_date" : "2017-04-06 09:21:07",
        "orbit_uncertainty" : "0",
        "minimum_orbit_intersection" : ".0913441",
        "jupiter_tisserand_invariant" : "6.085",
        "epoch_osculation" : "2458000.5",
        "eccentricity" : ".1133894991092726",
        "semi_major_axis" : ".9905192581079844",
        "inclination" : "16.45690372081749",
        "ascending_node_longitude" : "190.8281374089673",
        "orbital_period" : "360.0748698792846",
        "perihelion_distance" : ".8782047755730317",
        "perihelion_argument" : "20.50418115872342",
        "aphelion_distance" : "1.102833740642937",
        "perihelion_time" : "2457857.960262376763",
        "mean_anomaly" : "142.5100995289355",
        "mean_motion" : ".9997920713564108",
        "equinox" : "J2000"
      }
    } ]
  }
}